ONEWEB-0363             
1 49289U 21090L   24161.21771574  .00000134  00000+0  29817-3 0  9999
2 49289  87.9219  61.2698 0001602  84.5240 275.6076 13.20769480132890
ONEWEB-0364             
1 49290U 21090M   24161.25560945  .00000043  00000+0  73710-4 0  9994
2 49290  87.9221  61.2874 0001904  82.9917 277.1433 13.20770395134038
ONEWEB-0365             
1 49291U 21090N   24161.56513425  .00000042  00000+0  72431-4 0  9998
2 49291  87.9145  91.7555 0002169  78.8930 281.2446 13.19724849129137
ONEWEB-0366             
1 49292U 21090P   24161.32173567 -.00000125  00000+0 -37231-3 0  9994
2 49292  87.8975  76.5217 0002042  83.7725 276.3637 13.14502302130627
ONEWEB-0367             
1 49293U 21090Q   24161.21616343 -.00000003  00000+0 -40116-4 0  9999
2 49293  87.9222  61.2648 0002089  86.3133 273.8239 13.20771132132411
ONEWEB-0368             
1 49294U 21090R   24161.26508475  .00000062  00000+0  12075-3 0  9996
2 49294  87.9217  61.2851 0002144 103.7928 256.3444 13.20770557133572
ONEWEB-0370             
1 49296U 21090T   24161.22561787  .00000115  00000+0  25090-3 0  9999
2 49296  87.9220  61.2671 0001908  67.5781 292.5555 13.20773865133759
